[{"OBJECT_NAME":"INTELSAT 10 (IS-10)","OBJECT_ID":"2001-019A","EPOCH":"2026-03-05T07:48:45.869760","MEAN_MOTION":0.99041792,"ECCENTRICITY":0.0005935,"INCLINATION":8.828,"RA_OF_ASC_NODE":60.3105,"ARG_OF_PERICENTER":267.1133,"MEAN_ANOMALY":91.9502,"EPHEMERIS_TYPE":0,"CLASSIFICATION_TYPE":"U","NORAD_CAT_ID":26766,"ELEMENT_SET_NO":999,"REV_AT_EPOCH":4454,"BSTAR":0,"MEAN_MOTION_DOT":-2.88e-6,"MEAN_MOTION_DDOT":0},{"OBJECT_NAME":"INTELSAT 902 (IS-902)","OBJECT_ID":"2001-039A","EPOCH":"2026-03-05T10:20:10.233600","MEAN_MOTION":1.00272183,"ECCENTRICITY":0.0004614,"INCLINATION":5.855,"RA_OF_ASC_NODE":73.047,"ARG_OF_PERICENTER":273.1501,"MEAN_ANOMALY":281.9178,"EPHEMERIS_TYPE":0,"CLASSIFICATION_TYPE":"U","NORAD_CAT_ID":26900,"ELEMENT_SET_NO":999,"REV_AT_EPOCH":8965,"BSTAR":0,"MEAN_MOTION_DOT":-2.89e-6,"MEAN_MOTION_DDOT":0},{"OBJECT_NAME":"INTELSAT 904 (IS-904)","OBJECT_ID":"2002-007A","EPOCH":"2026-03-05T07:00:05.535936","MEAN_MOTION":1.00273205,"ECCENTRICITY":0.0006148,"INCLINATION":6.6608,"RA_OF_ASC_NODE":70.43,"ARG_OF_PERICENTER":306.2151,"MEAN_ANOMALY":219.9159,"EPHEMERIS_TYPE":0,"CLASSIFICATION_TYPE":"U","NORAD_CAT_ID":27380,"ELEMENT_SET_NO":999,"REV_AT_EPOCH":5072,"BSTAR":0,"MEAN_MOTION_DOT":-2.31e-6,"MEAN_MOTION_DDOT":0},{"OBJECT_NAME":"DIRECTV 5 (TEMPO 1)","OBJECT_ID":"2002-023A","EPOCH":"2026-03-05T15:11:04.841952","MEAN_MOTION":1.00272504,"ECCENTRICITY":0.0003629,"INCLINATION":4.6135,"RA_OF_ASC_NODE":76.6047,"ARG_OF_PERICENTER":278.0894,"MEAN_ANOMALY":286.3363,"EPHEMERIS_TYPE":0,"CLASSIFICATION_TYPE":"U","NORAD_CAT_ID":27426,"ELEMENT_SET_NO":999,"REV_AT_EPOCH":8708,"BSTAR":0,"MEAN_MOTION_DOT":-6.3e-7,"MEAN_MOTION_DDOT":0},{"OBJECT_NAME":"INTELSAT 905 (IS-905)","OBJECT_ID":"2002-027A","EPOCH":"2026-03-05T04:29:38.664384","MEAN_MOTION":1.00273968,"ECCENTRICITY":0.00031737,"INCLINATION":6.4927,"RA_OF_ASC_NODE":71.0512,"ARG_OF_PERICENTER":279.539,"MEAN_ANOMALY":102.5539,"EPHEMERIS_TYPE":0,"CLASSIFICATION_TYPE":"U","NORAD_CAT_ID":27438,"ELEMENT_SET_NO":999,"REV_AT_EPOCH":5032,"BSTAR":0,"MEAN_MOTION_DOT":8.8e-7,"MEAN_MOTION_DDOT":0},{"OBJECT_NAME":"GALAXY 3C (G-3C)","OBJECT_ID":"2002-030A","EPOCH":"2026-03-05T13:32:44.272320","MEAN_MOTION":1.00271862,"ECCENTRICITY":0.0001105,"INCLINATION":3.467,"RA_OF_ASC_NODE":79.4424,"ARG_OF_PERICENTER":25.2146,"MEAN_ANOMALY":166.9835,"EPHEMERIS_TYPE":0,"CLASSIFICATION_TYPE":"U","NORAD_CAT_ID":27445,"ELEMENT_SET_NO":999,"REV_AT_EPOCH":4545,"BSTAR":0,"MEAN_MOTION_DOT":-1.59e-6,"MEAN_MOTION_DDOT":0},{"OBJECT_NAME":"INTELSAT 906 (IS-906)","OBJECT_ID":"2002-041A","EPOCH":"2026-03-05T16:00:45.077760","MEAN_MOTION":1.00272987,"ECCENTRICITY":0.0003202,"INCLINATION":5.5394,"RA_OF_ASC_NODE":74.1943,"ARG_OF_PERICENTER":259.855,"MEAN_ANOMALY":133.6931,"EPHEMERIS_TYPE":0,"CLASSIFICATION_TYPE":"U","NORAD_CAT_ID":27513,"ELEMENT_SET_NO":999,"REV_AT_EPOCH":8599,"BSTAR":0,"MEAN_MOTION_DOT":8.0e-8,"MEAN_MOTION_DDOT":0},{"OBJECT_NAME":"GALAXY 13 (HORIZONS-1)","OBJECT_ID":"2003-044A","EPOCH":"2026-03-05T14:59:43.430208","MEAN_MOTION":1.00273122,"ECCENTRICITY":0.0002184,"INCLINATION":1.1501,"RA_OF_ASC_NODE":85.2775,"ARG_OF_PERICENTER":262.3828,"MEAN_ANOMALY":250.6152,"EPHEMERIS_TYPE":0,"CLASSIFICATION_TYPE":"U","NORAD_CAT_ID":27954,"ELEMENT_SET_NO":999,"REV_AT_EPOCH":4553,"BSTAR":0,"MEAN_MOTION_DOT":1.26e-6,"MEAN_MOTION_DDOT":0},{"OBJECT_NAME":"INTELSAT 10-02","OBJECT_ID":"2004-022A","EPOCH":"2026-03-05T15:42:16.850016","MEAN_MOTION":1.00270128,"ECCENTRICITY":0.0001192,"INCLINATION":0.0166,"RA_OF_ASC_NODE":126.2299,"ARG_OF_PERICENTER":261.4523,"MEAN_ANOMALY":10.2504,"EPHEMERIS_TYPE":0,"CLASSIFICATION_TYPE":"U","NORAD_CAT_ID":28358,"ELEMENT_SET_NO":999,"REV_AT_EPOCH":7951,"BSTAR":0,"MEAN_MOTION_DOT":-1.9e-7,"MEAN_MOTION_DDOT":0},{"OBJECT_NAME":"DIRECTV 8","OBJECT_ID":"2005-019A","EPOCH":"2026-03-05T15:08:35.081376","MEAN_MOTION":1.00271924,"ECCENTRICITY":0.0003306,"INCLINATION":0.0133,"RA_OF_ASC_NODE":116.5821,"ARG_OF_PERICENTER":242.0001,"MEAN_ANOMALY":272.8616,"EPHEMERIS_TYPE":0,"CLASSIFICATION_TYPE":"U","NORAD_CAT_ID":28659,"ELEMENT_SET_NO":999,"REV_AT_EPOCH":7603,"BSTAR":0,"MEAN_MOTION_DOT":-6.0e-8,"MEAN_MOTION_DDOT":0},{"OBJECT_NAME":"GALAXY 28 (G-28)","OBJECT_ID":"2005-022A","EPOCH":"2026-03-05T15:34:47.568288","MEAN_MOTION":1.00271711,"ECCENTRICITY":0.0002292,"INCLINATION":3.0313,"RA_OF_ASC_NODE":80.2326,"ARG_OF_PERICENTER":266.4956,"MEAN_ANOMALY":23.26,"EPHEMERIS_TYPE":0,"CLASSIFICATION_TYPE":"U","NORAD_CAT_ID":28702,"ELEMENT_SET_NO":999,"REV_AT_EPOCH":5093,"BSTAR":0,"MEAN_MOTION_DOT":-2.06e-6,"MEAN_MOTION_DDOT":0},{"OBJECT_NAME":"GALAXY 16 (G-16)","OBJECT_ID":"2006-023A","EPOCH":"2026-03-05T15:14:04.553952","MEAN_MOTION":1.00273051,"ECCENTRICITY":0.0002645,"INCLINATION":0.041,"RA_OF_ASC_NODE":231.1798,"ARG_OF_PERICENTER":116.6851,"MEAN_ANOMALY":304.9974,"EPHEMERIS_TYPE":0,"CLASSIFICATION_TYPE":"U","NORAD_CAT_ID":29236,"ELEMENT_SET_NO":999,"REV_AT_EPOCH":7193,"BSTAR":0,"MEAN_MOTION_DOT":-1.34e-6,"MEAN_MOTION_DDOT":0},{"OBJECT_NAME":"DIRECTV 9S","OBJECT_ID":"2006-043A","EPOCH":"2026-03-05T15:13:42.089952","MEAN_MOTION":1.00272363,"ECCENTRICITY":0.0003163,"INCLINATION":2.1535,"RA_OF_ASC_NODE":82.1868,"ARG_OF_PERICENTER":270.6229,"MEAN_ANOMALY":297.7696,"EPHEMERIS_TYPE":0,"CLASSIFICATION_TYPE":"U","NORAD_CAT_ID":29494,"ELEMENT_SET_NO":999,"REV_AT_EPOCH":5034,"BSTAR":0,"MEAN_MOTION_DOT":-1.2e-6,"MEAN_MOTION_DDOT":0},{"OBJECT_NAME":"GALAXY 17 (G-17)","OBJECT_ID":"2007-016B","EPOCH":"2026-03-05T13:35:36.496032","MEAN_MOTION":1.00271915,"ECCENTRICITY":0.0003326,"INCLINATION":2.7096,"RA_OF_ASC_NODE":81.2251,"ARG_OF_PERICENTER":266.6444,"MEAN_ANOMALY":294.3289,"EPHEMERIS_TYPE":0,"CLASSIFICATION_TYPE":"U","NORAD_CAT_ID":31307,"ELEMENT_SET_NO":999,"REV_AT_EPOCH":6876,"BSTAR":0,"MEAN_MOTION_DOT":-2.13e-6,"MEAN_MOTION_DDOT":0},{"OBJECT_NAME":"DIRECTV 10","OBJECT_ID":"2007-032A","EPOCH":"2026-03-05T15:54:08.213184","MEAN_MOTION":0.98337453,"ECCENTRICITY":0.0006657,"INCLINATION":0.1351,"RA_OF_ASC_NODE":100.5244,"ARG_OF_PERICENTER":274.6885,"MEAN_ANOMALY":67.6054,"EPHEMERIS_TYPE":0,"CLASSIFICATION_TYPE":"U","NORAD_CAT_ID":31862,"ELEMENT_SET_NO":999,"REV_AT_EPOCH":4454,"BSTAR":0,"MEAN_MOTION_DOT":-3.8e-7,"MEAN_MOTION_DDOT":0},{"OBJECT_NAME":"INTELSAT 11 (IS-11)","OBJECT_ID":"2007-044B","EPOCH":"2026-03-05T15:02:50.631360","MEAN_MOTION":0.99049439,"ECCENTRICITY":0.0004987,"INCLINATION":3.2956,"RA_OF_ASC_NODE":79.9453,"ARG_OF_PERICENTER":206.5262,"MEAN_ANOMALY":323.7159,"EPHEMERIS_TYPE":0,"CLASSIFICATION_TYPE":"U","NORAD_CAT_ID":32253,"ELEMENT_SET_NO":999,"REV_AT_EPOCH":6742,"BSTAR":0,"MEAN_MOTION_DOT":5.2e-7,"MEAN_MOTION_DDOT":0},{"OBJECT_NAME":"HORIZONS-2","OBJECT_ID":"2007-063B","EPOCH":"2026-03-05T13:38:43.697184","MEAN_MOTION":1.00271417,"ECCENTRICITY":0.0002795,"INCLINATION":2.3349,"RA_OF_ASC_NODE":81.9385,"ARG_OF_PERICENTER":259.2345,"MEAN_ANOMALY":313.0102,"EPHEMERIS_TYPE":0,"CLASSIFICATION_TYPE":"U","NORAD_CAT_ID":32388,"ELEMENT_SET_NO":999,"REV_AT_EPOCH":6677,"BSTAR":0,"MEAN_MOTION_DOT":-2.6e-6,"MEAN_MOTION_DDOT":0}]
