INTELSAT 10 (IS-10)     
1 26766U 01019A   26064.32553090 -.00000288  00000+0  00000+0 0  9990
2 26766   8.8280  60.3105 0005935 267.1133  91.9502  0.99041792 44549
INTELSAT 902 (IS-902)   
1 26900U 01039A   26064.43067400 -.00000289  00000+0  00000+0 0  9990
2 26900   5.8550  73.0470 0004614 273.1501 281.9178  1.00272183 89655
INTELSAT 904 (IS-904)   
1 27380U 02007A   26064.29173074 -.00000231  00000+0  00000+0 0  9995
2 27380   6.6608  70.4300 0006148 306.2151 219.9159  1.00273205 50729
DIRECTV 5 (TEMPO 1)     
1 27426U 02023A   26064.63269493 -.00000063  00000+0  00000+0 0  9996
2 27426   4.6135  76.6047 0003629 278.0894 286.3363  1.00272504 87085
INTELSAT 905 (IS-905)   
1 27438U 02027A   26064.18725306  .00000088  00000+0  00000+0 0  9999
2 27438   6.4927  71.0512 0003173 279.5390 102.5539  1.00273968 50320
GALAXY 3C (G-3C)        
1 27445U 02030A   26064.56440130 -.00000159  00000+0  00000+0 0  9992
2 27445   3.4670  79.4424 0001105  25.2146 166.9835  1.00271862 45454
INTELSAT 906 (IS-906)   
1 27513U 02041A   26064.66718840  .00000008  00000+0  00000+0 0  9999
2 27513   5.5394  74.1943 0003202 259.8550 133.6931  1.00272987 85998
GALAXY 13 (HORIZONS-1)  
1 27954U 03044A   26064.62480822  .00000126  00000+0  00000+0 0  9995
2 27954   1.1501  85.2775 0002184 262.3828 250.6152  1.00273122 45533
INTELSAT 10-02          
1 28358U 04022A   26064.65436169 -.00000019  00000+0  00000+0 0  9991
2 28358   0.0166 126.2299 0001192 261.4523  10.2504  1.00270128 79513
DIRECTV 8               
1 28659U 05019A   26064.63096159 -.00000006  00000+0  00000+0 0  9997
2 28659   0.0133 116.5821 0003306 242.0001 272.8616  1.00271924 76038
GALAXY 28 (G-28)        
1 28702U 05022A   26064.64916167 -.00000206  00000+0  00000+0 0  9993
2 28702   3.0313  80.2326 0002292 266.4956  23.2600  1.00271711 50935
GALAXY 16 (G-16)        
1 29236U 06023A   26064.63477493 -.00000134  00000+0  00000+0 0  9991
2 29236   0.0410 231.1798 0002645 116.6851 304.9974  1.00273051 71930
DIRECTV 9S              
1 29494U 06043A   26064.63451493 -.00000120  00000+0  00000+0 0  9996
2 29494   2.1535  82.1868 0003163 270.6229 297.7696  1.00272363 50342
GALAXY 17 (G-17)        
1 31307U 07016B   26064.56639463 -.00000213  00000+0  00000+0 0  9993
2 31307   2.7096  81.2251 0003326 266.6444 294.3289  1.00271915 68765
DIRECTV 10              
1 31862U 07032A   26064.66259506 -.00000038  00000+0  00000+0 0  9999
2 31862   0.1351 100.5244 0006657 274.6885  67.6054  0.98337453 44549
INTELSAT 11 (IS-11)     
1 32253U 07044B   26064.62697490  .00000052  00000+0  00000+0 0  9996
2 32253   3.2956  79.9453 0004987 206.5262 323.7159  0.99049439 67426
HORIZONS-2              
1 32388U 07063B   26064.56856131 -.00000260  00000+0  00000+0 0  9990
2 32388   2.3349  81.9385 0002795 259.2345 313.0102  1.00271417 66773
